LEMUR-2-LLOYD           
1 60577U 24149DP  26068.46001441  .00012007  00000+0  80143-3 0  9995
2 60577  97.6780 149.6779 0005186 125.6096 234.5616 15.07168338 85367
STARLINK-34940          
1 65397U 25191U   26068.64533354 -.00002835  00000+0 -19231-3 0  9991
2 65397  97.6000 301.4930 0001938  95.4795 264.6653 15.05659637 30264
